COSMOS 1408 DEB         
1 51547U 82092BLY 23258.50644835  .00096268  00000+0  17676-2 0  9997
2 51547  82.4717 177.5890 0047314 281.5450  78.0489 15.47634053 91851
COSMOS 1408 DEB         
1 51562U 82092BMP 23253.11077063  .00082279  00000+0  19462-2 0  9991
2 51562  82.5956 198.5276 0067206 252.5661 106.8230 15.39109583 90937
COSMOS 1408 DEB         
1 51579U 82092BNG 23258.19435157  .00024929  00000+0  74939-3 0  9993
2 51579  82.5007 174.8213 0043940 258.1360 101.4953 15.33283971 91917
COSMOS 1408 DEB         
1 51582U 82092BNK 23255.84729296  .00027407  00000+0  94722-3 0  9992
2 51582  82.5688 189.8554 0072479 240.4565 118.9436 15.27233900 91469
COSMOS 1408 DEB         
1 51616U 82092BPV 23254.07274866  .00160502  00000+0  53787-2 0  9991
2 51616  81.9030 165.1277 0127277  55.2491 306.0648 15.22832154 90350
COSMOS 1408 DEB         
1 52066U 82092BUU 23258.28854698  .00032879  00000+0  19098-2 0  9997
2 52066  82.5314 211.0580 0179303 339.4712  19.9365 14.99321427 84864
COSMOS 1408 DEB         
1 52514U 82092BXZ 23257.18815215  .00182887  00000+0  16360-2 0  9999
2 52514  82.5510 170.3010 0017142 169.4343 190.7282 15.67605600 79648
COSMOS 1408 DEB         
1 52517U 82092BYC 23256.10481008  .00057744  00000+0  22010-2 0  9994
2 52517  82.5721 199.4216 0088500 296.6695  62.5498 15.22802566 80248
COSMOS 1408 DEB         
1 52518U 82092BYD 23256.99320265  .00419902  62564-4  15666-2 0  9994
2 52518  82.4906 156.8999 0015386 114.9516 245.3355 15.87719682 79310
COSMOS 1408 DEB         
1 52814U 82092CAB 23257.46285062  .00073861  00000+0  11481-2 0  9994
2 52814  82.4640 164.9388 0044510 159.6571 200.6468 15.52492109 75245
COSMOS 1408 DEB         
1 52825U 82092CAL 23257.18192397  .00080778  00000+0  20166-2 0  9998
2 52825  82.8222 213.4210 0061388 281.9365  77.5003 15.37890521 74410
COSMOS 1408 DEB         
1 57270U 82092CBQ 23253.11699441  .00044849  00000+0  11489-2 0  9995
2 57270  82.4243 177.3626 0053898 257.1165 102.4055 15.37669497 46833
