[{"OBJECT_NAME":"COSMOS 1408 DEB","OBJECT_ID":"1982-092BLY","EPOCH":"2023-09-15T12:09:17.137440","MEAN_MOTION":15.47634053,"ECCENTRICITY":0.0047314,"INCLINATION":82.4717,"RA_OF_ASC_NODE":177.589,"ARG_OF_PERICENTER":281.545,"MEAN_ANOMALY":78.0489,"EPHEMERIS_TYPE":0,"CLASSIFICATION_TYPE":"U","NORAD_CAT_ID":51547,"ELEMENT_SET_NO":999,"REV_AT_EPOCH":9185,"BSTAR":0.0017676,"MEAN_MOTION_DOT":0.00096268,"MEAN_MOTION_DDOT":0},{"OBJECT_NAME":"COSMOS 1408 DEB","OBJECT_ID":"1982-092BMP","EPOCH":"2023-09-10T02:39:30.582432","MEAN_MOTION":15.39109583,"ECCENTRICITY":0.0067206,"INCLINATION":82.5956,"RA_OF_ASC_NODE":198.5276,"ARG_OF_PERICENTER":252.5661,"MEAN_ANOMALY":106.823,"EPHEMERIS_TYPE":0,"CLASSIFICATION_TYPE":"U","NORAD_CAT_ID":51562,"ELEMENT_SET_NO":999,"REV_AT_EPOCH":9093,"BSTAR":0.0019462,"MEAN_MOTION_DOT":0.00082279,"MEAN_MOTION_DDOT":0},{"OBJECT_NAME":"COSMOS 1408 DEB","OBJECT_ID":"1982-092BNG","EPOCH":"2023-09-15T04:39:51.975648","MEAN_MOTION":15.33283971,"ECCENTRICITY":0.004394,"INCLINATION":82.5007,"RA_OF_ASC_NODE":174.8213,"ARG_OF_PERICENTER":258.136,"MEAN_ANOMALY":101.4953,"EPHEMERIS_TYPE":0,"CLASSIFICATION_TYPE":"U","NORAD_CAT_ID":51579,"ELEMENT_SET_NO":999,"REV_AT_EPOCH":9191,"BSTAR":0.00074939,"MEAN_MOTION_DOT":0.00024929,"MEAN_MOTION_DDOT":0},{"OBJECT_NAME":"COSMOS 1408 DEB","OBJECT_ID":"1982-092BNK","EPOCH":"2023-09-12T20:20:06.111744","MEAN_MOTION":15.272339,"ECCENTRICITY":0.0072479,"INCLINATION":82.5688,"RA_OF_ASC_NODE":189.8554,"ARG_OF_PERICENTER":240.4565,"MEAN_ANOMALY":118.9436,"EPHEMERIS_TYPE":0,"CLASSIFICATION_TYPE":"U","NORAD_CAT_ID":51582,"ELEMENT_SET_NO":999,"REV_AT_EPOCH":9146,"BSTAR":0.00094722,"MEAN_MOTION_DOT":0.00027407,"MEAN_MOTION_DDOT":0},{"OBJECT_NAME":"COSMOS 1408 DEB","OBJECT_ID":"1982-092BPV","EPOCH":"2023-09-11T01:44:45.484224","MEAN_MOTION":15.22832154,"ECCENTRICITY":0.0127277,"INCLINATION":81.903,"RA_OF_ASC_NODE":165.1277,"ARG_OF_PERICENTER":55.2491,"MEAN_ANOMALY":306.0648,"EPHEMERIS_TYPE":0,"CLASSIFICATION_TYPE":"U","NORAD_CAT_ID":51616,"ELEMENT_SET_NO":999,"REV_AT_EPOCH":9035,"BSTAR":0.0053787,"MEAN_MOTION_DOT":0.00160502,"MEAN_MOTION_DDOT":0},{"OBJECT_NAME":"COSMOS 1408 DEB","OBJECT_ID":"1982-092BUU","EPOCH":"2023-09-15T06:55:30.459072","MEAN_MOTION":14.99321427,"ECCENTRICITY":0.0179303,"INCLINATION":82.5314,"RA_OF_ASC_NODE":211.058,"ARG_OF_PERICENTER":339.4712,"MEAN_ANOMALY":19.9365,"EPHEMERIS_TYPE":0,"CLASSIFICATION_TYPE":"U","NORAD_CAT_ID":52066,"ELEMENT_SET_NO":999,"REV_AT_EPOCH":8486,"BSTAR":0.0019098,"MEAN_MOTION_DOT":0.00032879,"MEAN_MOTION_DDOT":0},{"OBJECT_NAME":"COSMOS 1408 DEB","OBJECT_ID":"1982-092BXZ","EPOCH":"2023-09-14T04:30:56.345760","MEAN_MOTION":15.676056,"ECCENTRICITY":0.0017142,"INCLINATION":82.551,"RA_OF_ASC_NODE":170.301,"ARG_OF_PERICENTER":169.4343,"MEAN_ANOMALY":190.7282,"EPHEMERIS_TYPE":0,"CLASSIFICATION_TYPE":"U","NORAD_CAT_ID":52514,"ELEMENT_SET_NO":999,"REV_AT_EPOCH":7964,"BSTAR":0.001636,"MEAN_MOTION_DOT":0.00182887,"MEAN_MOTION_DDOT":0},{"OBJECT_NAME":"COSMOS 1408 DEB","OBJECT_ID":"1982-092BYC","EPOCH":"2023-09-13T02:30:55.590912","MEAN_MOTION":15.22802566,"ECCENTRICITY":0.00885,"INCLINATION":82.5721,"RA_OF_ASC_NODE":199.4216,"ARG_OF_PERICENTER":296.6695,"MEAN_ANOMALY":62.5498,"EPHEMERIS_TYPE":0,"CLASSIFICATION_TYPE":"U","NORAD_CAT_ID":52517,"ELEMENT_SET_NO":999,"REV_AT_EPOCH":8024,"BSTAR":0.002201,"MEAN_MOTION_DOT":0.00057744,"MEAN_MOTION_DDOT":0},{"OBJECT_NAME":"COSMOS 1408 DEB","OBJECT_ID":"1982-092BYD","EPOCH":"2023-09-13T23:50:12.708960","MEAN_MOTION":15.87719682,"ECCENTRICITY":0.0015386,"INCLINATION":82.4906,"RA_OF_ASC_NODE":156.8999,"ARG_OF_PERICENTER":114.9516,"MEAN_ANOMALY":245.3355,"EPHEMERIS_TYPE":0,"CLASSIFICATION_TYPE":"U","NORAD_CAT_ID":52518,"ELEMENT_SET_NO":999,"REV_AT_EPOCH":7931,"BSTAR":0.0015666,"MEAN_MOTION_DOT":0.00419902,"MEAN_MOTION_DDOT":6.2564e-5},{"OBJECT_NAME":"COSMOS 1408 DEB","OBJECT_ID":"1982-092CAB","EPOCH":"2023-09-14T11:06:30.293568","MEAN_MOTION":15.52492109,"ECCENTRICITY":0.004451,"INCLINATION":82.464,"RA_OF_ASC_NODE":164.9388,"ARG_OF_PERICENTER":159.6571,"MEAN_ANOMALY":200.6468,"EPHEMERIS_TYPE":0,"CLASSIFICATION_TYPE":"U","NORAD_CAT_ID":52814,"ELEMENT_SET_NO":999,"REV_AT_EPOCH":7524,"BSTAR":0.0011481,"MEAN_MOTION_DOT":0.00073861,"MEAN_MOTION_DDOT":0},{"OBJECT_NAME":"COSMOS 1408 DEB","OBJECT_ID":"1982-092CAL","EPOCH":"2023-09-14T04:21:58.231008","MEAN_MOTION":15.37890521,"ECCENTRICITY":0.0061388,"INCLINATION":82.8222,"RA_OF_ASC_NODE":213.421,"ARG_OF_PERICENTER":281.9365,"MEAN_ANOMALY":77.5003,"EPHEMERIS_TYPE":0,"CLASSIFICATION_TYPE":"U","NORAD_CAT_ID":52825,"ELEMENT_SET_NO":999,"REV_AT_EPOCH":7441,"BSTAR":0.0020166,"MEAN_MOTION_DOT":0.00080778,"MEAN_MOTION_DDOT":0},{"OBJECT_NAME":"COSMOS 1408 DEB","OBJECT_ID":"1982-092CBQ","EPOCH":"2023-09-10T02:48:28.317024","MEAN_MOTION":15.37669497,"ECCENTRICITY":0.0053898,"INCLINATION":82.4243,"RA_OF_ASC_NODE":177.3626,"ARG_OF_PERICENTER":257.1165,"MEAN_ANOMALY":102.4055,"EPHEMERIS_TYPE":0,"CLASSIFICATION_TYPE":"U","NORAD_CAT_ID":57270,"ELEMENT_SET_NO":999,"REV_AT_EPOCH":4683,"BSTAR":0.0011489,"MEAN_MOTION_DOT":0.00044849,"MEAN_MOTION_DDOT":0}]
